{"type":"FeatureCollection","features":[{"type":"Feature","properties":{"name":"Villa Italia"},"geometry":{"type":"Polygon","coordinates":[[[-57.884581,-36.8618707],[-57.877865,-36.8561197],[-57.882843,-36.8519477],[-57.896276,-36.8635187],[-57.89104,-36.8672617],[-57.884581,-36.8618707]]]}},{"type":"Feature","properties":{"name":"Villa Vanelli"},"geometry":{"type":"Polygon","coordinates":[[[-57.883101,-36.879689],[-57.874689,-36.87224],[-57.883294,-36.865528],[-57.884302,-36.866352],[-57.887135,-36.864154],[-57.890954,-36.867433],[-57.889087,-36.868961],[-57.892714,-36.871828],[-57.883101,-36.879689]]]}},{"type":"Feature","properties":{"name":"Barrio Belgrano"},"geometry":{"type":"Polygon","coordinates":[[[-57.871041,-36.854969],[-57.870097,-36.850196],[-57.870719,-36.850299],[-57.87132,-36.850694],[-57.87411,-36.85296],[-57.877736,-36.856171],[-57.878616,-36.856995],[-57.879581,-36.857682],[-57.876792,-36.859794],[-57.873788,-36.857304],[-57.871041,-36.854969]]]}},{"type":"Feature","properties":{"name":"Barrio Centro"},"geometry":{"type":"Polygon","coordinates":[[[-57.8794958,-36.8577854],[-57.887135,-36.864154],[-57.884302,-36.866352],[-57.8765777,-36.859862],[-57.8794958,-36.8577854]]]}},{"type":"Feature","properties":{"name":"Barrio Alvarado"},"geometry":{"type":"Polygon","coordinates":[[[-57.8713098,-36.8553724],[-57.8795068,-36.8623604],[-57.8765668,-36.8645754],[-57.8719318,-36.8605064],[-57.8713098,-36.8553724]]]}},{"type":"Feature","properties":{"name":"Barrio Unión"},"geometry":{"type":"Polygon","coordinates":[[[-57.883036,-36.865528],[-57.87456,-36.872154],[-57.873895,-36.871587],[-57.872071,-36.860927],[-57.876556,-36.864704],[-57.879646,-36.86242],[-57.883036,-36.865528]]]}},{"type":"Feature","properties":{"name":"Barrio Santo Domigo"},"geometry":{"type":"Polygon","coordinates":[[[-57.59016,-36.703522],[-57.592478,-36.714463],[-57.578144,-36.719004],[-57.573338,-36.705449],[-57.59016,-36.703522]]]}},{"type":"Feature","properties":{"name":"Barrio Segurola"},"geometry":{"type":"Polygon","coordinates":[[[-57.463989,-36.827837],[-57.467937,-36.834294],[-57.455921,-36.839927],[-57.450428,-36.831478],[-57.463989,-36.827837]]]}},{"type":"Feature","properties":{"name":"Barrio Monsalvo"},"geometry":{"type":"Polygon","coordinates":[[[-57.36434,-36.876977],[-57.366786,-36.880959],[-57.356358,-36.887207],[-57.352667,-36.881577],[-57.36434,-36.876977]]]}},{"type":"Feature","properties":{"name":"Las Armas"},"geometry":{"type":"Polygon","coordinates":[[[-57.826202,-37.076203],[-57.83869,-37.077675],[-57.835,-37.09024],[-57.821352,-37.088391],[-57.826202,-37.076203]]]}},{"type":"Feature","properties":{"name":"Municipalidad de Maipú - Las Armas","type":"poi"},"geometry":{"type":"Point","coordinates":[-57.826281,-37.084728]}},{"type":"Feature","properties":{"name":"Municipalidad de Maipú","type":"poi"},"geometry":{"type":"Point","coordinates":[-57.881995,-36.861983]}},{"type":"Feature","properties":{"name":"Consejo Deliverante","type":"poi"},"geometry":{"type":"Point","coordinates":[-57.882521,-36.863493]}},{"type":"Feature","properties":{"name":"Subsecretaría de Acción Social","type":"poi"},"geometry":{"type":"Point","coordinates":[-57.881802,-36.862068]}},{"type":"Feature","properties":{"name":"Sede del partido Justicialista de Maipú","type":"poi"},"geometry":{"type":"Point","coordinates":[-57.879657,-36.862214]}},{"type":"Feature","properties":{"name":"Cuartel de Bomberos","type":"poi"},"geometry":{"type":"Point","coordinates":[-57.885761,-36.863347]}},{"type":"Feature","properties":{"name":"Cuartel de Bomberos","type":"poi"},"geometry":{"type":"Point","coordinates":[-57.828856,-37.081681]}},{"type":"Feature","properties":{"name":"Maipú en Banda","type":"poi"},"geometry":{"type":"Point","coordinates":[-57.886705,-36.86248]}},{"type":"Feature","properties":{"name":"Estación de Tren de Maipú","type":"poi"},"geometry":{"type":"Point","coordinates":[-57.886223,-36.862575]}},{"type":"Feature","properties":{"name":"Estación de Tren Las Armas","type":"poi"},"geometry":{"type":"Point","coordinates":[-57.832804,-37.084437]}},{"type":"Feature","properties":{"name":"Cementerio de Maipú","type":"poi"},"geometry":{"type":"Point","coordinates":[-57.889967,-36.874875]}},{"type":"Feature","properties":{"name":"Polideportivo Juan Domingo Perón","type":"poi"},"geometry":{"type":"Point","coordinates":[-57.885734,-36.872888]}},{"type":"Feature","properties":{"name":"Club Jorge Newbery","type":"poi"},"geometry":{"type":"Point","coordinates":[-57.88309,-36.86042]}},{"type":"Feature","properties":{"name":"Club Social","type":"poi"},"geometry":{"type":"Point","coordinates":[-57.88397,-36.862798]}},{"type":"Feature","properties":{"name":"Club Deportivo Maipú","type":"poi"},"geometry":{"type":"Point","coordinates":[-57.87544,-36.863399]}},{"type":"Feature","properties":{"name":"Club Independiente Sede Social","type":"poi"},"geometry":{"type":"Point","coordinates":[-57.881877,-36.865244]}},{"type":"Feature","properties":{"name":"Club Las Armas","type":"poi"},"geometry":{"type":"Point","coordinates":[-57.831323,-37.085225]}},{"type":"Feature","properties":{"name":"Club Ferrocarril","type":"poi"},"geometry":{"type":"Point","coordinates":[-57.886491,-36.869425]}},{"type":"Feature","properties":{"name":"Banco Provincia","type":"poi"},"geometry":{"type":"Point","coordinates":[-57.882124,-36.86321]}},{"type":"Feature","properties":{"name":"Banco Nación","type":"poi"},"geometry":{"type":"Point","coordinates":[-57.8807353,-36.8613901]}},{"type":"Feature","properties":{"name":"Delegación de ARBA","type":"poi"},"geometry":{"type":"Point","coordinates":[-57.88427,-36.863622]}},{"type":"Feature","properties":{"name":"Escuela Nº501","type":"poi"},"geometry":{"type":"Point","coordinates":[-57.887006,-36.859961]}},{"type":"Feature","properties":{"name":"Hospital de Maipú","type":"poi"},"geometry":{"type":"Point","coordinates":[-57.874453,-36.859201]}},{"type":"Feature","properties":{"name":"Sala de primeros auxilios","type":"poi"},"geometry":{"type":"Point","coordinates":[-57.830422,-37.083513]}},{"type":"Feature","properties":{"name":"E.G.B N13 Paula A. de Sarmiento","type":"poi"},"geometry":{"type":"Point","coordinates":[-57.828405,-37.084523]}},{"type":"Feature","properties":{"name":"Escuela Domingo Faustino Sarmiento","type":"poi"},"geometry":{"type":"Point","coordinates":[-57.882768,-36.863751]}},{"type":"Feature","properties":{"name":"Escuela Nº 8 Juan Bautista Alberdi","type":"poi"},"geometry":{"type":"Point","coordinates":[-57.87544,-36.857115]}},{"type":"Feature","properties":{"name":"Escuela Nº 1","type":"poi"},"geometry":{"type":"Point","coordinates":[-57.877988,-36.868343]}},{"type":"Feature","properties":{"name":"Jardín de Infantes 902","type":"poi"},"geometry":{"type":"Point","coordinates":[-57.825637,-37.084608]}},{"type":"Feature","properties":{"name":"Centro de Formación Profesional de Villa Vanelli","type":"poi"},"geometry":{"type":"Point","coordinates":[-57.882328,-36.870094]}},{"type":"Feature","properties":{"name":"LU30 Radio Maipú","type":"poi"},"geometry":{"type":"Point","coordinates":[-57.888535,-36.871223]}},{"type":"Feature","properties":{"name":"Comisaría","type":"poi"},"geometry":{"type":"Point","coordinates":[-57.881089,-36.86291]}},{"type":"Feature","properties":{"name":"Estación de Policía","type":"poi"},"geometry":{"type":"Point","coordinates":[-57.826366,-37.085276]}},{"type":"Feature","properties":{"name":"Control de Policía","type":"poi"},"geometry":{"type":"Point","coordinates":[-57.830465,-37.081578]}},{"type":"Feature","properties":{"name":"Sociedad Italiana","type":"poi"},"geometry":{"type":"Point","coordinates":[-57.8828,-36.861339]}},{"type":"Feature","properties":{"name":"Hogar de Ancianos de Maipú","type":"poi"},"geometry":{"type":"Point","coordinates":[-57.875848,-36.857416]}},{"type":"Feature","properties":{"name":"Oficina de ANSES","type":"poi"},"geometry":{"type":"Point","coordinates":[-57.873369,-36.86042]}},{"type":"Feature","properties":{"name":"Centro Cultural Leopoldo Marechal","type":"poi"},"geometry":{"type":"Point","coordinates":[-57.884377,-36.863536]}},{"type":"Feature","properties":{"name":"Centro Comunitario Barrio Unión","type":"poi"},"geometry":{"type":"Point","coordinates":[-57.876202,-36.86821]}},{"type":"Feature","properties":{"name":"Plaza Quintana de Villa Vanelli","type":"poi"},"geometry":{"type":"Point","coordinates":[-57.882913,-36.869699]}},{"type":"Feature","properties":{"name":"Plaza Alvarado","type":"poi"},"geometry":{"type":"Point","coordinates":[-57.874807,-36.862283]}},{"type":"Feature","properties":{"name":"Plaza Barrio Unión","type":"poi"},"geometry":{"type":"Point","coordinates":[-57.876009,-36.868867]}},{"type":"Feature","properties":{"name":"IOMA","type":"poi"},"geometry":{"type":"Point","coordinates":[-57.875923,-36.859073]}},{"type":"Feature","properties":{"name":"Iglesia","type":"poi"},"geometry":{"type":"Point","coordinates":[-57.884206,-36.863802]}},{"type":"Feature","properties":{"name":"Capilla Nuestra Señora de Luján - Las Armas","type":"poi"},"geometry":{"type":"Point","coordinates":[-57.828298,-37.084762]}},{"type":"Feature","properties":{"name":"Tanque de Agua","type":"poi"},"geometry":{"type":"Point","coordinates":[-57.8340478,-37.0821602]}},{"type":"Feature","properties":{"name":"GNC","type":"poi"},"geometry":{"type":"Point","coordinates":[-57.8725648,-36.8691155]}},{"type":"Feature","properties":{"name":"Punto 60","type":"poi"},"geometry":{"type":"Point","coordinates":[-57.8670502,-36.8468304]}},{"type":"Feature","properties":{"name":"Tomas Elorriaga e Hijos S.A.","type":"poi"},"geometry":{"type":"Point","coordinates":[-57.866556,-36.848092]}},{"type":"Feature","properties":{"name":"Estación de Servicio","type":"poi"},"geometry":{"type":"Point","coordinates":[-57.8705263,-36.8553469]}},{"type":"Feature","properties":{"name":"Escuela de Arte de Maipú","type":"poi"},"geometry":{"type":"Point","coordinates":[-57.882081,-36.865184]}},{"type":"Feature","properties":{"name":"Distrizub Sa - Cosmeticos Gigot","type":"poi"},"geometry":{"type":"Point","coordinates":[-57.8710632,-36.8604698]}},{"type":"Feature","properties":{"name":"Laguna de Maipú","type":"poi"},"geometry":{"type":"Point","coordinates":[-57.8165817,-36.8594332]}},{"type":"Feature","properties":{"name":"Expo Miel Maipú","type":"poi"},"geometry":{"type":"Point","coordinates":[-57.898732,-36.863437]}},{"type":"Feature","properties":{"name":"Supermercado Dia","type":"poi"},"geometry":{"type":"Point","coordinates":[-57.8767705,-36.8653732]}}]}